$$SOE
2460721.500000000, A.D. 2025-Feb-15 00:00:00.0000, -4.363870079665307E+08, 1.588155933590368E+08, 9.370389248847225E+07,
2460728.500000000, A.D. 2025-Feb-22 00:00:00.0000, -4.410407518873261E+08, 1.508069595694769E+08, 9.475752333703505E+07,
2460735.500000000, A.D. 2025-Mar-01 00:00:00.0000, -4.454954957377209E+08, 1.427302485712247E+08, 9.576839989320061E+07,
2460742.500000000, A.D. 2025-Mar-08 00:00:00.0000, -4.497515643634855E+08, 1.345898529594450E+08, 9.673656819921616E+07,
2460749.500000000, A.D. 2025-Mar-15 00:00:00.0000, -4.538093291206526E+08, 1.263900844191725E+08, 9.766208508668427E+07,
2460756.500000000, A.D. 2025-Mar-22 00:00:00.0000, -4.576692070416261E+08, 1.181351767344942E+08, 9.854501774217042E+07,
2460763.500000000, A.D. 2025-Mar-29 00:00:00.0000, -4.613316588285980E+08, 1.098292865169001E+08, 9.938544300609998E+07,
2460770.500000000, A.D. 2025-Apr-05 00:00:00.0000, -4.647971853372560E+08, 1.014764947858882E+08, 1.001834466287269E+08,
2460777.500000000, A.D. 2025-Apr-12 00:00:00.0000, -4.680663244681956E+08, 9.308080950115217E+07, 1.009391226663067E+08,
2460784.500000000, A.D. 2025-Apr-19 00:00:00.0000, -4.711396486466035E+08, 8.464616816318750E+07, 1.016525729613653E+08,
2460791.500000000, A.D. 2025-Apr-26 00:00:00.0000, -4.740177626109133E+08, 7.617644027923900E+07, 1.023239066640884E+08,
2460798.500000000, A.D. 2025-May-03 00:00:00.0000, -4.767013013880697E+08, 6.767542971382001E+07, 1.029532397840735E+08,
2460805.500000000, A.D. 2025-May-10 00:00:00.0000, -4.791909284180011E+08, 5.914687693218425E+07, 1.035406947684446E+08,
2460812.500000000, A.D. 2025-May-17 00:00:00.0000, -4.814873337821664E+08, 5.059446109525101E+07, 1.040864000975647E+08,
2460819.500000000, A.D. 2025-May-24 00:00:00.0000, -4.835912323543840E+08, 4.202180195106691E+07, 1.045904898760399E+08,
2460826.500000000, A.D. 2025-May-31 00:00:00.0000, -4.855033614487454E+08, 3.343246183344140E+07, 1.050531034043388E+08,
2460833.500000000, A.D. 2025-Jun-07 00:00:00.0000, -4.872244783585515E+08, 2.482994897218478E+07, 1.054743848645999E+08,
2460840.500000000, A.D. 2025-Jun-14 00:00:00.0000, -4.887553601449437E+08, 1.621772144760029E+07, 1.058544832816488E+08,
2460847.500000000, A.D. 2025-Jun-21 00:00:00.0000, -4.900968044540420E+08, 7.599188518153179E+06, 1.061935523794315E+08,
2460854.500000000, A.D. 2025-Jun-28 00:00:00.0000, -4.912496282290791E+08, -1.022288912565909E+06, 1.064917501891396E+08,
2460861.500000000, A.D. 2025-Jul-05 00:00:00.0000, -4.922146658277581E+08, -9.643396532436661E+06, 1.067492387228767E+08,
2460868.500000000, A.D. 2025-Jul-12 00:00:00.0000, -4.929927677308862E+08, -1.826086436649814E+07, 1.069661837551300E+08,
2460875.500000000, A.D. 2025-Jul-19 00:00:00.0000, -4.935847996491989E+08, -2.687146460639004E+07, 1.071427546470050E+08,
2460882.500000000, A.D. 2025-Jul-26 00:00:00.0000, -4.939916418149589E+08, -3.547200957902518E+07, 1.072791241887498E+08,
2460889.500000000, A.D. 2025-Aug-02 00:00:00.0000, -4.942141883892609E+08, -4.405934983164315E+07, 1.073754684556790E+08,
2460896.500000000, A.D. 2025-Aug-09 00:00:00.0000, -4.942533469580706E+08, -5.263037234671268E+07, 1.074319666735203E+08,
2460903.500000000, A.D. 2025-Aug-16 00:00:00.0000, -4.941100380367803E+08, -6.118199894871806E+07, 1.074488010804107E+08,
2460910.500000000, A.D. 2025-Aug-23 00:00:00.0000, -4.937851942876195E+08, -6.971118488509750E+07, 1.074261567595928E+08,
2460917.500000000, A.D. 2025-Aug-30 00:00:00.0000, -4.932797591180143E+08, -7.821491686603898E+07, 1.073642214705517E+08,
2460924.500000000, A.D. 2025-Sep-06 00:00:00.0000, -4.925946860751505E+08, -8.669020956188436E+07, 1.072631856899804E+08,
2460931.500000000, A.D. 2025-Sep-13 00:00:00.0000, -4.917309407055552E+08, -9.513410304049222E+07, 1.071232428127431E+08,
2460938.500000000, A.D. 2025-Sep-20 00:00:00.0000, -4.906895016055794E+08, -1.035436627879159E+08, 1.069445890784285E+08,
2460945.500000000, A.D. 2025-Sep-27 00:00:00.0000, -4.894713596023387E+08, -1.119159791988403E+08, 1.067274233805583E+08,
2460952.500000000, A.D. 2025-Oct-04 00:00:00.0000, -4.880775170790405E+08, -1.202481659962008E+08, 1.064719471869526E+08,
2460959.500000000, A.D. 2025-Oct-11 00:00:00.0000, -4.865089878166174E+08, -1.285373585224761E+08, 1.061783645281417E+08,
2460966.500000000, A.D. 2025-Oct-18 00:00:00.0000, -4.847667970673530E+08, -1.367807121762975E+08, 1.058468820053611E+08,
2460973.500000000, A.D. 2025-Oct-25 00:00:00.0000, -4.828519817204874E+08, -1.449754009819293E+08, 1.054777088061928E+08,
2460980.500000000, A.D. 2025-Nov-01 00:00:00.0000, -4.807655905196397E+08, -1.531186162742683E+08, 1.050710567252632E+08,
2460987.500000000, A.D. 2025-Nov-08 00:00:00.0000, -4.785086842964599E+08, -1.612075655287054E+08, 1.046271401837992E+08,
2460994.500000000, A.D. 2025-Nov-15 00:00:00.0000, -4.760823360712542E+08, -1.692394713923329E+08, 1.041461762290200E+08,
2461001.500000000, A.D. 2025-Nov-22 00:00:00.0000, -4.734876306161820E+08, -1.772115706946468E+08, 1.036283844936086E+08,
2461008.500000000, A.D. 2025-Nov-29 00:00:00.0000, -4.707256636324105E+08, -1.851211123016309E+08, 1.030739872212696E+08,
2461015.500000000, A.D. 2025-Dec-06 00:00:00.0000, -4.677975428174071E+08, -1.929653539490819E+08, 1.024832095556242E+08,
2461022.500000000, A.D. 2025-Dec-13 00:00:00.0000, -4.647043903892239E+08, -2.007415614260730E+08, 1.018562797773750E+08,
2461029.500000000, A.D. 2025-Dec-20 00:00:00.0000, -4.614473435764348E+08, -2.084470090850204E+08, 1.011934292535690E+08,
2461036.500000000, A.D. 2025-Dec-27 00:00:00.0000, -4.580275541484166E+08, -2.160789790852117E+08, 1.004948924094741E+08,
2461043.500000000, A.D. 2026-Jan-03 00:00:00.0000, -4.544461884450485E+08, -2.236347599835085E+08, 9.976090680647908E+07,
2461050.500000000, A.D. 2026-Jan-10 00:00:00.0000, -4.507044277960861E+08, -2.311116453498412E+08, 9.899171326041542E+07,
2461057.500000000, A.D. 2026-Jan-17 00:00:00.0000, -4.468034690981424E+08, -2.385069324978602E+08, 9.818755597163987E+07,
2461064.500000000, A.D. 2026-Jan-24 00:00:00.0000, -4.427445254719527E+08, -2.458179213066706E+08, 9.734868266180804E+07,
2461071.500000000, A.D. 2026-Jan-31 00:00:00.0000, -4.385288269770132E+08, -2.530419131395873E+08, 9.647534471478596E+07,
2461078.500000000, A.D. 2026-Feb-07 00:00:00.0000, -4.341576213226197E+08, -2.601762099159002E+08, 9.556779731157935E+07,
2461085.500000000, A.D. 2026-Feb-14 00:00:00.0000, -4.296321743229190E+08, -2.672181133497589E+08, 9.462629953505373E+07,
2461092.500000000, A.D. 2026-Feb-21 00:00:00.0000, -4.249537697091601E+08, -2.741649237780683E+08, 9.365111445630834E+07,
2461099.500000000, A.D. 2026-Feb-28 00:00:00.0000, -4.201237093846044E+08, -2.810139374230216E+08, 9.264250939665088E+07,
2461106.500000000, A.D. 2026-Mar-07 00:00:00.0000, -4.151433161813266E+08, -2.877624440391405E+08, 9.160075639483406E+07,
2461113.500000000, A.D. 2026-Mar-14 00:00:00.0000, -4.100139363449441E+08, -2.944077272783368E+08, 9.052613243490157E+07,
2461120.500000000, A.D. 2026-Mar-21 00:00:00.0000, -4.047369399667321E+08, -3.009470648752517E+08, 8.941891950868571E+07,
2461127.500000000, A.D. 2026-Mar-28 00:00:00.0000, -3.993137213740994E+08, -3.073777276237323E+08, 8.827940478175735E+07,
2461134.500000000, A.D. 2026-Apr-04 00:00:00.0000, -3.937457000842392E+08, -3.136969781099698E+08, 8.710788083957109E+07,
2461141.500000000, A.D. 2026-Apr-11 00:00:00.0000, -3.880343220484511E+08, -3.199020695628365E+08, 8.590464595969692E+07,
2461148.500000000, A.D. 2026-Apr-18 00:00:00.0000, -3.821810610297285E+08, -3.259902448289636E+08, 8.467000439560136E+07,
2461155.500000000, A.D. 2026-Apr-25 00:00:00.0000, -3.761874200698273E+08, -3.319587354585761E+08, 8.340426666964963E+07,
2461162.500000000, A.D. 2026-May-02 00:00:00.0000, -3.700549330169923E+08, -3.378047609323010E+08, 8.210774987069368E+07,
2461169.500000000, A.D. 2026-May-09 00:00:00.0000, -3.637851659914212E+08, -3.435255280958862E+08, 8.078077793994042E+07,
2461176.500000000, A.D. 2026-May-16 00:00:00.0000, -3.573797184121787E+08, -3.491182306654840E+08, 7.942368192226386E+07,
2461183.500000000, A.D. 2026-May-23 00:00:00.0000, -3.508402235355029E+08, -3.545800477823572E+08, 7.803680026228574E+07,
2461190.500000000, A.D. 2026-May-30 00:00:00.0000, -3.441683505847003E+08, -3.599081412989837E+08, 7.662047936245450E+07,
2461197.500000000, A.D. 2026-Jun-06 00:00:00.0000, -3.373658087911240E+08, -3.650996550726908E+08, 7.517507416529287E+07,
2461204.500000000, A.D. 2026-Jun-13 00:00:00.0000, -3.304343496838812E+08, -3.701517160713547E+08, 7.370094844079636E+07,
2461211.500000000, A.D. 2026-Jun-20 00:00:00.0000, -3.233757681336460E+08, -3.750614343678743E+08, 7.219847506502585E+07,
2461218.500000000, A.D. 2026-Jun-27 00:00:00.0000, -3.161919038529026E+08, -3.798259023653554E+08, 7.066803641852073E+07,
2461225.500000000, A.D. 2026-Jul-04 00:00:00.0000, -3.088846433563822E+08, -3.844421940299741E+08, 6.911002484161872E+07,
2461232.500000000, A.D. 2026-Jul-11 00:00:00.0000, -3.014559221313779E+08, -3.889073642657915E+08, 6.752484311295670E+07,
2461239.500000000, A.D. 2026-Jul-18 00:00:00.0000, -2.939077269288361E+08, -3.932184484083290E+08, 6.591290494508760E+07,
2461246.500000000, A.D. 2026-Jul-25 00:00:00.0000, -2.862420981541443E+08, -3.973724618368907E+08, 6.427463549552888E+07,
2461253.500000000, A.D. 2026-Aug-01 00:00:00.0000, -2.784611323124956E+08, -4.013663997570822E+08, 6.261047188528076E+07,
2461260.500000000, A.D. 2026-Aug-08 00:00:00.0000, -2.705669842969694E+08, -4.051972371939454E+08, 6.092086370278366E+07,
2461267.500000000, A.D. 2026-Aug-15 00:00:00.0000, -2.625618691080635E+08, -4.088619287510387E+08, 5.920627349300317E+07,
2461274.500000000, A.D. 2026-Aug-22 00:00:00.0000, -2.544480637703852E+08, -4.123574069202501E+08, 5.746717740239798E+07,
2461281.500000000, A.D. 2026-Aug-29 00:00:00.0000, -2.462279117404182E+08, -4.156805803210728E+08, 5.570406607861646E+07,
2461288.500000000, A.D. 2026-Sep-05 00:00:00.0000, -2.379038276766790E+08, -4.188283347443301E+08, 5.391744539595369E+07,
$$EOE